[{"OBJECT_NAME":"STARLINK-5759","OBJECT_ID":"2023-020Z","EPOCH":"2026-03-09T22:00:01.999584","MEAN_MOTION":15.11213795,"ECCENTRICITY":7.655e-5,"INCLINATION":43.0001,"RA_OF_ASC_NODE":2.8746,"ARG_OF_PERICENTER":245.4266,"MEAN_ANOMALY":332.6605,"EPHEMERIS_TYPE":0,"CLASSIFICATION_TYPE":"U","NORAD_CAT_ID":55592,"ELEMENT_SET_NO":999,"REV_AT_EPOCH":573,"BSTAR":0.070837726,"MEAN_MOTION_DOT":0.01314943,"MEAN_MOTION_DDOT":0},{"OBJECT_NAME":"TOMORROW-S4","OBJECT_ID":"2024-247K","EPOCH":"2026-03-09T12:47:35.836224","MEAN_MOTION":15.27717249,"ECCENTRICITY":0.00044343,"INCLINATION":44.9818,"RA_OF_ASC_NODE":117.9996,"ARG_OF_PERICENTER":210.4078,"MEAN_ANOMALY":149.6548,"EPHEMERIS_TYPE":0,"CLASSIFICATION_TYPE":"U","NORAD_CAT_ID":62386,"ELEMENT_SET_NO":999,"REV_AT_EPOCH":6770,"BSTAR":0.00046927249,"MEAN_MOTION_DOT":0.00012677,"MEAN_MOTION_DDOT":0}]
